{"type": "FeatureCollection", "features": [ {"type": "Feature", "properties": {"norad_id": 34609, "name": "COSMOS 2251 DEB", "group": "cosmos-2251-debris", "lat": 18.612227501173685, "lon": 111.21805671397841, "alt_km": 757.6027767099413, "timestamp": "2025-12-13T08:49:16.086350+00:00", "meta": {"OBJECT_NAME": "COSMOS 2251 DEB", "OBJECT_ID": "1993-036WE", "EPOCH": "2025-12-12T14:12:36.075744", "MEAN_MOTION": 14.21793046, "ECCENTRICITY": 0.0145108, "INCLINATION": 73.7329, "RA_OF_ASC_NODE": 106.9916, "ARG_OF_PERICENTER": 326.4971, "MEAN_ANOMALY": 44.0414, "EPHEMERIS_TYPE": 0, "CLASSIFICATION_TYPE": "U", "NORAD_CAT_ID": 34609, "ELEMENT_SET_NO": 999, "REV_AT_EPOCH": 86630, "BSTAR": 0.0013320674, "MEAN_MOTION_DOT": 3.236e-05, "MEAN_MOTION_DDOT": 0}, "tle": {"line1": "1 34609U 93036WE  25346.59208421  .00003236  00000+0  13321-2 0  9999", "line2": "2 34609  73.7329 106.9916 0145108 326.4971  44.0414 14.21793046866305"}}, "geometry": {"type": "Point", "coordinates": [111.21805671397841, 18.612227501173685]}}, {"type": "Feature", "properties": {"norad_id": 34610, "name": "COSMOS 2251 DEB", "group": "cosmos-2251-debris", "lat": 26.515346307937705, "lon": 72.99864893896398, "alt_km": 932.7067739541553, "timestamp": "2025-12-13T08:49:16.086360+00:00", "meta": {"OBJECT_NAME": "COSMOS 2251 DEB", "OBJECT_ID": "1993-036WF", "EPOCH": "2025-12-12T04:48:44.443296", "MEAN_MOTION": 14.0705156, "ECCENTRICITY": 0.01802638, "INCLINATION": 74.0182, "RA_OF_ASC_NODE": 263.2648, "ARG_OF_PERICENTER": 33.9962, "MEAN_ANOMALY": 327.257, "EPHEMERIS_TYPE": 0, "CLASSIFICATION_TYPE": "U", "NORAD_CAT_ID": 34610, "ELEMENT_SET_NO": 999, "REV_AT_EPOCH": 85552, "BSTAR": 0.0029791885, "MEAN_MOTION_DOT": 5.751e-05, "MEAN_MOTION_DDOT": 0}, "tle": {"line1": "1 34610U 93036WF  25346.20051439  .00005751  00000+0  29792-2 0  9997", "line2": "2 34610  74.0182 263.2648 0180263  33.9962 327.2570 14.07051560855521"}}, "geometry": {"type": "Point", "coordinates": [72.99864893896398, 26.515346307937705]}}, {"type": "Feature", "properties": {"norad_id": 34611, "name": "COSMOS 2251 DEB", "group": "cosmos-2251-debris", "lat": -13.446347105361445, "lon": 95.8311504188738, "alt_km": 681.2476732899804, "timestamp": "2025-12-13T08:49:16.086370+00:00", "meta": {"OBJECT_NAME": "COSMOS 2251 DEB", "OBJECT_ID": "1993-036WG", "EPOCH": "2025-12-12T18:44:38.260896", "MEAN_MOTION": 14.69512546, "ECCENTRICITY": 0.00226437, "INCLINATION": 74.0528, "RA_OF_ASC_NODE": 100.8859, "ARG_OF_PERICENTER": 142.4968, "MEAN_ANOMALY": 342.0161, "EPHEMERIS_TYPE": 0, "CLASSIFICATION_TYPE": "U", "NORAD_CAT_ID": 34611, "ELEMENT_SET_NO": 999, "REV_AT_EPOCH": 88391, "BSTAR": 0.0024174663, "MEAN_MOTION_DOT": 0.00014394, "MEAN_MOTION_DDOT": 0}, "tle": {"line1": "1 34611U 93036WG  25346.78099839  .00014394  00000+0  24175-2 0  9990", "line2": "2 34611  74.0528 100.8859 0022643 142.4968 342.0161 14.69512546883914"}}, "geometry": {"type": "Point", "coordinates": [95.8311504188738, -13.446347105361445]}}, {"type": "Feature", "properties": {"norad_id": 34613, "name": "COSMOS 2251 DEB", "group": "cosmos-2251-debris", "lat": -24.103311548610222, "lon": -89.97911977352697, "alt_km": 863.4664428755377, "timestamp": "2025-12-13T08:49:16.086381+00:00", "meta": {"OBJECT_NAME": "COSMOS 2251 DEB", "OBJECT_ID": "1993-036WJ", "EPOCH": "2025-12-11T21:54:05.274720", "MEAN_MOTION": 14.26425303, "ECCENTRICITY": 0.0110163, "INCLINATION": 73.9634, "RA_OF_ASC_NODE": 280.0551, "ARG_OF_PERICENTER": 112.0795, "MEAN_ANOMALY": 315.1744, "EPHEMERIS_TYPE": 0, "CLASSIFICATION_TYPE": "U", "NORAD_CAT_ID": 34613, "ELEMENT_SET_NO": 999, "REV_AT_EPOCH": 86451, "BSTAR": 0.0018166, "MEAN_MOTION_DOT": 4.638e-05, "MEAN_MOTION_DDOT": 0}, "tle": {"line1": "1 34613U 93036WJ  25345.91256105  .00004638  00000+0  18166-2 0  9990", "line2": "2 34613  73.9634 280.0551 0110163 112.0795 315.1744 14.26425303864518"}}, "geometry": {"type": "Point", "coordinates": [-89.97911977352697, -24.103311548610222]}}, {"type": "Feature", "properties": {"norad_id": 34614, "name": "COSMOS 2251 DEB", "group": "cosmos-2251-debris", "lat": -45.591868277217685, "lon": 179.92663607383017, "alt_km": 882.7128763706996, "timestamp": "2025-12-13T08:49:16.086391+00:00", "meta": {"OBJECT_NAME": "COSMOS 2251 DEB", "OBJECT_ID": "1993-036WK", "EPOCH": "2025-12-11T23:41:34.354752", "MEAN_MOTION": 14.17468731, "ECCENTRICITY": 0.019729, "INCLINATION": 73.88, "RA_OF_ASC_NODE": 345.2379, "ARG_OF_PERICENTER": 339.2204, "MEAN_ANOMALY": 49.7663, "EPHEMERIS_TYPE": 0, "CLASSIFICATION_TYPE": "U", "NORAD_CAT_ID": 34614, "ELEMENT_SET_NO": 999, "REV_AT_EPOCH": 84756, "BSTAR": 0.0083262, "MEAN_MOTION_DOT": 0.00020474, "MEAN_MOTION_DDOT": 0}, "tle": {"line1": "1 34614U 93036WK  25345.98720318  .00020474  00000+0  83262-2 0  9995", "line2": "2 34614  73.8800 345.2379 0197290 339.2204  49.7663 14.17468731847567"}}, "geometry": {"type": "Point", "coordinates": [179.92663607383017, -45.591868277217685]}}, {"type": "Feature", "properties": {"norad_id": 34615, "name": "COSMOS 2251 DEB", "group": "cosmos-2251-debris", "lat": -20.21764745709382, "lon": -72.92803585043188, "alt_km": 1288.261850115472, "timestamp": "2025-12-13T08:49:16.086401+00:00", "meta": {"OBJECT_NAME": "COSMOS 2251 DEB", "OBJECT_ID": "1993-036WL", "EPOCH": "2025-12-11T15:13:30.717120", "MEAN_MOTION": 13.52202046, "ECCENTRICITY": 0.04013404, "INCLINATION": 74.005, "RA_OF_ASC_NODE": 295.914, "ARG_OF_PERICENTER": 203.3816, "MEAN_ANOMALY": 338.769, "EPHEMERIS_TYPE": 0, "CLASSIFICATION_TYPE": "U", "NORAD_CAT_ID": 34615, "ELEMENT_SET_NO": 999, "REV_AT_EPOCH": 82800, "BSTAR": 0.00021166372, "MEAN_MOTION_DOT": 2.1e-06, "MEAN_MOTION_DDOT": 0}, "tle": {"line1": "1 34615U 93036WL  25345.63438330  .00000210  00000+0  21166-3 0  9990", "line2": "2 34615  74.0050 295.9140 0401340 203.3816 338.7690 13.52202046828001"}}, "geometry": {"type": "Point", "coordinates": [-72.92803585043188, -20.21764745709382]}}, {"type": "Feature", "properties": {"norad_id": 34619, "name": "COSMOS 2251 DEB", "group": "cosmos-2251-debris", "lat": 40.36902097795673, "lon": 4.656049677776687, "alt_km": 735.5984051602563, "timestamp": "2025-12-13T08:49:16.086412+00:00", "meta": {"OBJECT_NAME": "COSMOS 2251 DEB", "OBJECT_ID": "1993-036WQ", "EPOCH": "2025-12-12T23:59:32.022816", "MEAN_MOTION": 14.64647058, "ECCENTRICITY": 0.00947202, "INCLINATION": 74.0441, "RA_OF_ASC_NODE": 199.4397, "ARG_OF_PERICENTER": 294.2388, "MEAN_ANOMALY": 64.8905, "EPHEMERIS_TYPE": 0, "CLASSIFICATION_TYPE": "U", "NORAD_CAT_ID": 34619, "ELEMENT_SET_NO": 999, "REV_AT_EPOCH": 89302, "BSTAR": 0.0003380125, "MEAN_MOTION_DOT": 1.885e-05, "MEAN_MOTION_DDOT": 0}, "tle": {"line1": "1 34619U 93036WQ  25346.99967619  .00001885  00000+0  33801-3 0  9999", "line2": "2 34619  74.0441 199.4397 0094720 294.2388  64.8905 14.64647058893024"}}, "geometry": {"type": "Point", "coordinates": [4.656049677776687, 40.36902097795673]}}, {"type": "Feature", "properties": {"norad_id": 34620, "name": "COSMOS 2251 DEB", "group": "cosmos-2251-debris", "lat": -17.65017900335214, "lon": -146.86443060468775, "alt_km": 729.7783113813039, "timestamp": "2025-12-13T08:49:16.086422+00:00", "meta": {"OBJECT_NAME": "COSMOS 2251 DEB", "OBJECT_ID": "1993-036WR", "EPOCH": "2025-12-13T00:37:17.720256", "MEAN_MOTION": 14.49111919, "ECCENTRICITY": 0.00806252, "INCLINATION": 74.0516, "RA_OF_ASC_NODE": 218.9958, "ARG_OF_PERICENTER": 255.3546, "MEAN_ANOMALY": 103.8666, "EPHEMERIS_TYPE": 0, "CLASSIFICATION_TYPE": "U", "NORAD_CAT_ID": 34620, "ELEMENT_SET_NO": 999, "REV_AT_EPOCH": 86831, "BSTAR": 0.0030494488, "MEAN_MOTION_DOT": 0.00012073, "MEAN_MOTION_DDOT": 0}, "tle": {"line1": "1 34620U 93036WR  25347.02589954  .00012073  00000+0  30494-2 0  9993", "line2": "2 34620  74.0516 218.9958 0080625 255.3546 103.8666 14.49111919868319"}}, "geometry": {"type": "Point", "coordinates": [-146.86443060468775, -17.65017900335214]}}, {"type": "Feature", "properties": {"norad_id": 34622, "name": "COSMOS 2251 DEB", "group": "cosmos-2251-debris", "lat": -72.99250430032936, "lon": -123.4112497876664, "alt_km": 853.1374855251797, "timestamp": "2025-12-13T08:49:16.086433+00:00", "meta": {"OBJECT_NAME": "COSMOS 2251 DEB", "OBJECT_ID": "1993-036WT", "EPOCH": "2025-12-11T23:44:50.481888", "MEAN_MOTION": 14.22040835, "ECCENTRICITY": 0.0104345, "INCLINATION": 74.0426, "RA_OF_ASC_NODE": 308.3579, "ARG_OF_PERICENTER": 30.9905, "MEAN_ANOMALY": 34.0072, "EPHEMERIS_TYPE": 0, "CLASSIFICATION_TYPE": "U", "NORAD_CAT_ID": 34622, "ELEMENT_SET_NO": 999, "REV_AT_EPOCH": 86449, "BSTAR": 0.0014307, "MEAN_MOTION_DOT": 3.32e-05, "MEAN_MOTION_DDOT": 0}, "tle": {"line1": "1 34622U 93036WT  25345.98947317  .00003320  00000+0  14307-2 0  9999", "line2": "2 34622  74.0426 308.3579 0104345  30.9905  34.0072 14.22040835864496"}}, "geometry": {"type": "Point", "coordinates": [-123.4112497876664, -72.99250430032936]}}, {"type": "Feature", "properties": {"norad_id": 34626, "name": "COSMOS 2251 DEB", "group": "cosmos-2251-debris", "lat": -33.62525208215653, "lon": 153.63895826462232, "alt_km": 677.8456321126187, "timestamp": "2025-12-13T08:49:16.086443+00:00", "meta": {"OBJECT_NAME": "COSMOS 2251 DEB", "OBJECT_ID": "1993-036WX", "EPOCH": "2025-12-12T23:56:51.850176", "MEAN_MOTION": 14.72202432, "ECCENTRICITY": 0.00265512, "INCLINATION": 74.0485, "RA_OF_ASC_NODE": 323.3922, "ARG_OF_PERICENTER": 51.4997, "MEAN_ANOMALY": 4.7791, "EPHEMERIS_TYPE": 0, "CLASSIFICATION_TYPE": "U", "NORAD_CAT_ID": 34626, "ELEMENT_SET_NO": 999, "REV_AT_EPOCH": 89148, "BSTAR": 0.0014414962, "MEAN_MOTION_DOT": 9.122e-05, "MEAN_MOTION_DDOT": 0}, "tle": {"line1": "1 34626U 93036WX  25346.99782234  .00009122  00000+0  14415-2 0  9996", "line2": "2 34626  74.0485 323.3922 0026551  51.4997   4.7791 14.72202432891484"}}, "geometry": {"type": "Point", "coordinates": [153.63895826462232, -33.62525208215653]}}]}